[
    {
        "id": 0,
        "name": "Hillingdon Sports & Leisure Complex",
        "postcode": "UB8 1ES",
        "address": "Gatting Way, Uxbridge, Hillingdon, UB8 1ES"
    },
    {
        "id": 1,
        "name": "Botwell Green Sports and Leisure Centre",
        "postcode": "UB3 2HW",
        "address": "East Avenue, Hayes, Hillingdon, UB3 2HW"
    },
    {
        "id": 2,
        "name": "Brunel University Sports Centre",
        "postcode": "UB8 3PH",
        "address": "Kingston Lane, Uxbridge, Hillingdon, UB8 3PH"
    },
    {
        "id": 3,
        "name": "Harefield Academy",
        "postcode": "UB9 6ET",
        "address": "Northwood Way, Harefield, Hillingdon, UB9 6ET"
    },
    {
        "id": 4,
        "name": "Ealing Trailfinders Sports Club",
        "postcode": "W13 0DD",
        "address": "Vallis Way, West Ealing, London, W13 0DD"
    },
    {
        "id": 5,
        "name": "Elthorne Sports Centre",
        "postcode": "W7 2AD",
        "address": "Westlea Road, Hanwell, Ealing, W7 2AD"
    },
    {
        "id": 6,
        "name": "Dormers Wells Leisure Centre",
        "postcode": "UB1 3JB",
        "address": "Dormers Wells Lane, Southall, Ealing, UB1 3JB"
    },
    {
        "id": 7,
        "name": "Gunnersbury Park Sports Hub",
        "postcode": "W3 8LQ",
        "address": "Popes Lane, Acton, Ealing, W3 8LQ"
    },
    {
        "id": 8,
        "name": "Northolt Leisure Centre",
        "postcode": "UB5 4AB",
        "address": "Eastcote Lane North, Northolt, Ealing, UB5 4AB"
    },
    {
        "id": 9,
        "name": "Isleworth Leisure Centre & Library",
        "postcode": "TW7 7EU",
        "address": "Twickenham Road, Isleworth, Hounslow, TW7 7EU"
    },
    {
        "id": 10,
        "name": "Hanworth Air Park Leisure Centre",
        "postcode": "TW13 5EG",
        "address": "Uxbridge Road, Feltham, Hounslow, TW13 5EG"
    },
    {
        "id": 11,
        "name": "Heston Pools and Fitness",
        "postcode": "TW5 0QZ",
        "address": "New Heston Road, Hounslow, TW5 0QZ"
    },
    {
        "id": 12,
        "name": "Lampton Leisure Centre",
        "postcode": "TW3 4DN",
        "address": "Lampton Park, Hounslow, TW3 4DN"
    },
    {
        "id": 13,
        "name": "Feltham Assembly Hall",
        "postcode": "TW14 9DN",
        "address": "Hounslow Road, Feltham, Hounslow, TW14 9DN"
    },
    {
        "id": 14,
        "name": "Hounslow Urban Farm",
        "postcode": "TW4 5QZ",
        "address": "Faggs Road, Feltham, Hounslow, TW4 5QZ"
    }
]